CCSDS_OMM_VERS = 2.0
CREATION_DATE  = 
ORIGINATOR     = 

OBJECT_NAME    = OKEAN-3
OBJECT_ID      = 1991-039A
CENTER_NAME    = EARTH
REF_FRAME      = TEME
TIME_SYSTEM    = UTC
MEAN_ELEMENT_THEORY = SGP/SGP4

EPOCH          = 2025-11-16T09:39:07.678944
MEAN_MOTION    = 15.03869902
ECCENTRICITY   = .0014287
INCLINATION    = 82.5159
RA_OF_ASC_NODE = 86.5320
ARG_OF_PERICENTER = 2.1513
MEAN_ANOMALY   = 357.9771

EPHEMERIS_TYPE = 0
CLASSIFICATION_TYPE = U
NORAD_CAT_ID   = 21397
ELEMENT_SET_NO = 999
REV_AT_EPOCH   = 84800
BSTAR          = .38171E-3
MEAN_MOTION_DOT = .5292E-4
MEAN_MOTION_DDOT = 0

CCSDS_OMM_VERS = 2.0
CREATION_DATE  = 
ORIGINATOR     = 

OBJECT_NAME    = COSMOS 2151
OBJECT_ID      = 1991-042A
CENTER_NAME    = EARTH
REF_FRAME      = TEME
TIME_SYSTEM    = UTC
MEAN_ELEMENT_THEORY = SGP/SGP4

EPOCH          = 2025-11-16T11:12:17.667360
MEAN_MOTION    = 14.99558749
ECCENTRICITY   = .0014148
INCLINATION    = 82.4984
RA_OF_ASC_NODE = 192.8168
ARG_OF_PERICENTER = 81.8628
MEAN_ANOMALY   = 278.4199

EPHEMERIS_TYPE = 0
CLASSIFICATION_TYPE = U
NORAD_CAT_ID   = 21422
ELEMENT_SET_NO = 999
REV_AT_EPOCH   = 84622
BSTAR          = .26432E-3
MEAN_MOTION_DOT = .3281E-4
MEAN_MOTION_DDOT = 0

CCSDS_OMM_VERS = 2.0
CREATION_DATE  = 
ORIGINATOR     = 

OBJECT_NAME    = SL-14 R/B
OBJECT_ID      = 1991-042B
CENTER_NAME    = EARTH
REF_FRAME      = TEME
TIME_SYSTEM    = UTC
MEAN_ELEMENT_THEORY = SGP/SGP4

EPOCH          = 2025-11-16T10:40:47.421984
MEAN_MOTION    = 14.81704994
ECCENTRICITY   = .001554
INCLINATION    = 82.4918
RA_OF_ASC_NODE = 326.3846
ARG_OF_PERICENTER = 251.6617
MEAN_ANOMALY   = 108.2907

EPHEMERIS_TYPE = 0
CLASSIFICATION_TYPE = U
NORAD_CAT_ID   = 21423
ELEMENT_SET_NO = 999
REV_AT_EPOCH   = 83630
BSTAR          = .10293E-3
MEAN_MOTION_DOT = .835E-5
MEAN_MOTION_DDOT = 0

CCSDS_OMM_VERS = 2.0
CREATION_DATE  = 
ORIGINATOR     = 

OBJECT_NAME    = ERS-1
OBJECT_ID      = 1991-050A
CENTER_NAME    = EARTH
REF_FRAME      = TEME
TIME_SYSTEM    = UTC
MEAN_ELEMENT_THEORY = SGP/SGP4

EPOCH          = 2025-11-16T11:02:20.189760
MEAN_MOTION    = 14.39336414
ECCENTRICITY   = .0032054
INCLINATION    = 98.7920
RA_OF_ASC_NODE = 330.8558
ARG_OF_PERICENTER = 176.3539
MEAN_ANOMALY   = 183.7887

EPHEMERIS_TYPE = 0
CLASSIFICATION_TYPE = U
NORAD_CAT_ID   = 21574
ELEMENT_SET_NO = 999
REV_AT_EPOCH   = 79944
BSTAR          = .22748E-3
MEAN_MOTION_DOT = .665E-5
MEAN_MOTION_DDOT = 0

CCSDS_OMM_VERS = 2.0
CREATION_DATE  = 
ORIGINATOR     = 

OBJECT_NAME    = ARIANE 40 R/B
OBJECT_ID      = 1991-050F
CENTER_NAME    = EARTH
REF_FRAME      = TEME
TIME_SYSTEM    = UTC
MEAN_ELEMENT_THEORY = SGP/SGP4

EPOCH          = 2025-11-15T14:25:41.513088
MEAN_MOTION    = 14.42780935
ECCENTRICITY   = .0004176
INCLINATION    = 98.2207
RA_OF_ASC_NODE = 11.0064
ARG_OF_PERICENTER = 69.9809
MEAN_ANOMALY   = 290.1831

EPHEMERIS_TYPE = 0
CLASSIFICATION_TYPE = U
NORAD_CAT_ID   = 21610
ELEMENT_SET_NO = 999
REV_AT_EPOCH   = 80254
BSTAR          = .26095E-3
MEAN_MOTION_DOT = .828E-5
MEAN_MOTION_DDOT = 0

CCSDS_OMM_VERS = 2.0
CREATION_DATE  = 
ORIGINATOR     = 

OBJECT_NAME    = INTERCOSMOS 25
OBJECT_ID      = 1991-086A
CENTER_NAME    = EARTH
REF_FRAME      = TEME
TIME_SYSTEM    = UTC
MEAN_ELEMENT_THEORY = SGP/SGP4

EPOCH          = 2025-11-16T07:09:09.093024
MEAN_MOTION    = 12.11613731
ECCENTRICITY   = .1488141
INCLINATION    = 82.6086
RA_OF_ASC_NODE = 18.5595
ARG_OF_PERICENTER = 1.4051
MEAN_ANOMALY   = 359.0549

EPHEMERIS_TYPE = 0
CLASSIFICATION_TYPE = U
NORAD_CAT_ID   = 21819
ELEMENT_SET_NO = 999
REV_AT_EPOCH   = 48295
BSTAR          = .49494E-3
MEAN_MOTION_DOT = .2523E-4
MEAN_MOTION_DDOT = 0

CCSDS_OMM_VERS = 2.0
CREATION_DATE  = 
ORIGINATOR     = 

OBJECT_NAME    = SL-8 R/B
OBJECT_ID      = 1992-008B
CENTER_NAME    = EARTH
REF_FRAME      = TEME
TIME_SYSTEM    = UTC
MEAN_ELEMENT_THEORY = SGP/SGP4

EPOCH          = 2025-11-16T12:32:49.301376
MEAN_MOTION    = 13.75950930
ECCENTRICITY   = .0036152
INCLINATION    = 82.9280
RA_OF_ASC_NODE = 351.9480
ARG_OF_PERICENTER = 90.9679
MEAN_ANOMALY   = 78.4200

EPHEMERIS_TYPE = 0
CLASSIFICATION_TYPE = U
NORAD_CAT_ID   = 21876
ELEMENT_SET_NO = 999
REV_AT_EPOCH   = 69385
BSTAR          = .15421E-3
MEAN_MOTION_DOT = .166E-5
MEAN_MOTION_DDOT = 0

CCSDS_OMM_VERS = 2.0
CREATION_DATE  = 
ORIGINATOR     = 

OBJECT_NAME    = SL-8 R/B
OBJECT_ID      = 1992-020B
CENTER_NAME    = EARTH
REF_FRAME      = TEME
TIME_SYSTEM    = UTC
MEAN_ELEMENT_THEORY = SGP/SGP4

EPOCH          = 2025-11-16T12:45:32.477760
MEAN_MOTION    = 13.75522455
ECCENTRICITY   = .0027647
INCLINATION    = 82.9314
RA_OF_ASC_NODE = 237.7768
ARG_OF_PERICENTER = 253.4149
MEAN_ANOMALY   = 280.1287

EPHEMERIS_TYPE = 0
CLASSIFICATION_TYPE = U
NORAD_CAT_ID   = 21938
ELEMENT_SET_NO = 999
REV_AT_EPOCH   = 68557
BSTAR          = .98308E-4
MEAN_MOTION_DOT = .11E-5
MEAN_MOTION_DDOT = 0

CCSDS_OMM_VERS = 2.0
CREATION_DATE  = 
ORIGINATOR     = 

OBJECT_NAME    = USA 81
OBJECT_ID      = 1992-023A
CENTER_NAME    = EARTH
REF_FRAME      = TEME
TIME_SYSTEM    = UTC
MEAN_ELEMENT_THEORY = SGP/SGP4

EPOCH          = 2025-11-16T10:00:59.426208
MEAN_MOTION    = 14.32313841
ECCENTRICITY   = .0002532
INCLINATION    = 85.0106
RA_OF_ASC_NODE = 196.7540
ARG_OF_PERICENTER = 72.9936
MEAN_ANOMALY   = 287.1534

EPHEMERIS_TYPE = 0
CLASSIFICATION_TYPE = U
NORAD_CAT_ID   = 21949
ELEMENT_SET_NO = 999
REV_AT_EPOCH   = 7857
BSTAR          = .12228E-3
MEAN_MOTION_DOT = .35E-5
MEAN_MOTION_DDOT = 0

CCSDS_OMM_VERS = 2.0
CREATION_DATE  = 
ORIGINATOR     = 

OBJECT_NAME    = COSMOS 2219
OBJECT_ID      = 1992-076A
CENTER_NAME    = EARTH
REF_FRAME      = TEME
TIME_SYSTEM    = UTC
MEAN_ELEMENT_THEORY = SGP/SGP4

EPOCH          = 2025-11-16T06:26:07.240704
MEAN_MOTION    = 14.14067576
ECCENTRICITY   = .0017918
INCLINATION    = 71.0612
RA_OF_ASC_NODE = 255.1655
ARG_OF_PERICENTER = 5.2667
MEAN_ANOMALY   = 354.8640

EPHEMERIS_TYPE = 0
CLASSIFICATION_TYPE = U
NORAD_CAT_ID   = 22219
ELEMENT_SET_NO = 999
REV_AT_EPOCH   = 70234
BSTAR          = .5599E-4
MEAN_MOTION_DOT = .6E-6
MEAN_MOTION_DDOT = 0

CCSDS_OMM_VERS = 2.0
CREATION_DATE  = 
ORIGINATOR     = 

OBJECT_NAME    = SL-16 R/B
OBJECT_ID      = 1992-076B
CENTER_NAME    = EARTH
REF_FRAME      = TEME
TIME_SYSTEM    = UTC
MEAN_ELEMENT_THEORY = SGP/SGP4

EPOCH          = 2025-11-16T10:55:46.189344
MEAN_MOTION    = 14.16835846
ECCENTRICITY   = .001527
INCLINATION    = 71.0007
RA_OF_ASC_NODE = 66.8967
ARG_OF_PERICENTER = 268.2852
MEAN_ANOMALY   = 161.4902

EPHEMERIS_TYPE = 0
CLASSIFICATION_TYPE = U
NORAD_CAT_ID   = 22220
ELEMENT_SET_NO = 999
REV_AT_EPOCH   = 70579
BSTAR          = -.33054E-4
MEAN_MOTION_DOT = -.114E-5
MEAN_MOTION_DDOT = 0

CCSDS_OMM_VERS = 2.0
CREATION_DATE  = 
ORIGINATOR     = 

OBJECT_NAME    = COSMOS 2221
OBJECT_ID      = 1992-080A
CENTER_NAME    = EARTH
REF_FRAME      = TEME
TIME_SYSTEM    = UTC
MEAN_ELEMENT_THEORY = SGP/SGP4

EPOCH          = 2025-11-16T11:00:55.325952
MEAN_MOTION    = 14.95621918
ECCENTRICITY   = .0013917
INCLINATION    = 82.5073
RA_OF_ASC_NODE = 27.4741
ARG_OF_PERICENTER = 207.5001
MEAN_ANOMALY   = 152.5485

EPHEMERIS_TYPE = 0
CLASSIFICATION_TYPE = U
NORAD_CAT_ID   = 22236
ELEMENT_SET_NO = 999
REV_AT_EPOCH   = 76386
BSTAR          = .30966E-3
MEAN_MOTION_DOT = .347E-4
MEAN_MOTION_DDOT = 0

