OKEAN-3                 
1 21397U 91039A   25320.40217221  .00005292  00000+0  38171-3 0  9995
2 21397  82.5159  86.5320 0014287   2.1513 357.9771 15.03869902848004
COSMOS 2151             
1 21422U 91042A   25320.46687115  .00003281  00000+0  26432-3 0  9990
2 21422  82.4984 192.8168 0014148  81.8628 278.4199 14.99558749846227
SL-14 R/B               
1 21423U 91042B   25320.44499331  .00000835  00000+0  10293-3 0  9990
2 21423  82.4918 326.3846 0015540 251.6617 108.2907 14.81704994836305
ERS-1                   
1 21574U 91050A   25320.45995590  .00000665  00000+0  22748-3 0  9994
2 21574  98.7920 330.8558 0032054 176.3539 183.7887 14.39336414799449
ARIANE 40 R/B           
1 21610U 91050F   25319.60117492  .00000828  00000+0  26095-3 0  9997
2 21610  98.2207  11.0064 0004176  69.9809 290.1831 14.42780935802547
INTERCOSMOS 25          
1 21819U 91086A   25320.29802191  .00002523  00000+0  49494-3 0  9993
2 21819  82.6086  18.5595 1488141   1.4051 359.0549 12.11613731482953
SL-8 R/B                
1 21876U 92008B   25320.52279284  .00000166  00000+0  15421-3 0  9992
2 21876  82.9280 351.9480 0036152  90.9679  78.4200 13.75950930693856
SL-8 R/B                
1 21938U 92020B   25320.53162590  .00000110  00000+0  98308-4 0  9992
2 21938  82.9314 237.7768 0027647 253.4149 280.1287 13.75522455685574
USA 81                  
1 21949U 92023A   25320.41735447  .00000350  00000+0  12228-3 0  9993
2 21949  85.0106 196.7540 0002532  72.9936 287.1534 14.32313841 78574
COSMOS 2219             
1 22219U 92076A   25320.26813936  .00000060  00000+0  55990-4 0  9997
2 22219  71.0612 255.1655 0017918   5.2667 354.8640 14.14067576702343
SL-16 R/B               
1 22220U 92076B   25320.45539571 -.00000114  00000+0 -33054-4 0  9999
2 22220  71.0007  66.8967 0015270 268.2852 161.4902 14.16835846705792
COSMOS 2221             
1 22236U 92080A   25320.45897368  .00003470  00000+0  30966-3 0  9996
2 22236  82.5073  27.4741 0013917 207.5001 152.5485 14.95621918763869
